<?xml version="1.0" encoding="UTF-8"?>
<ndm xmlns:xsi="http://www.w3.org/2001/XMLSchema-instance" xsi:noNamespaceSchemaLocation="https://sanaregistry.org/r/ndmxml_unqualified/ndmxml-2.0.0-master-2.0.xsd">
<omm id="CCSDS_OMM_VERS" version="2.0">
<header><CREATION_DATE/><ORIGINATOR/></header><body><segment><metadata><OBJECT_NAME>FALCON 9 DEB</OBJECT_NAME><OBJECT_ID>2022-099BA</OBJECT_ID><CENTER_NAME>EARTH</CENTER_NAME><REF_FRAME>TEME</REF_FRAME><TIME_SYSTEM>UTC</TIME_SYSTEM><MEAN_ELEMENT_THEORY>SGP4</MEAN_ELEMENT_THEORY></metadata><data><meanElements><EPOCH>2022-08-29T13:37:59.744640</EPOCH><MEAN_MOTION>15.91616686</MEAN_MOTION><ECCENTRICITY>.0010481</ECCENTRICITY><INCLINATION>97.6733</INCLINATION><RA_OF_ASC_NODE>0.7811</RA_OF_ASC_NODE><ARG_OF_PERICENTER>200.9773</ARG_OF_PERICENTER><MEAN_ANOMALY>159.1071</MEAN_ANOMALY></meanElements><tleParameters><EPHEMERIS_TYPE>0</EPHEMERIS_TYPE><CLASSIFICATION_TYPE>U</CLASSIFICATION_TYPE><NORAD_CAT_ID>53513</NORAD_CAT_ID><ELEMENT_SET_NO>999</ELEMENT_SET_NO><REV_AT_EPOCH>265</REV_AT_EPOCH><BSTAR>.57993E-3</BSTAR><MEAN_MOTION_DOT>.187433E-2</MEAN_MOTION_DOT><MEAN_MOTION_DDOT>.15246E-4</MEAN_MOTION_DDOT></tleParameters></data></segment></body></omm>
<omm id="CCSDS_OMM_VERS" version="2.0">
<header><CREATION_DATE/><ORIGINATOR/></header><body><segment><metadata><OBJECT_NAME>FALCON 9 DEB</OBJECT_NAME><OBJECT_ID>2022-099BB</OBJECT_ID><CENTER_NAME>EARTH</CENTER_NAME><REF_FRAME>TEME</REF_FRAME><TIME_SYSTEM>UTC</TIME_SYSTEM><MEAN_ELEMENT_THEORY>SGP4</MEAN_ELEMENT_THEORY></metadata><data><meanElements><EPOCH>2022-08-29T13:33:45.011520</EPOCH><MEAN_MOTION>15.91850773</MEAN_MOTION><ECCENTRICITY>.0009768</ECCENTRICITY><INCLINATION>97.6717</INCLINATION><RA_OF_ASC_NODE>0.7820</RA_OF_ASC_NODE><ARG_OF_PERICENTER>185.2922</ARG_OF_PERICENTER><MEAN_ANOMALY>174.8249</MEAN_ANOMALY></meanElements><tleParameters><EPHEMERIS_TYPE>0</EPHEMERIS_TYPE><CLASSIFICATION_TYPE>U</CLASSIFICATION_TYPE><NORAD_CAT_ID>53514</NORAD_CAT_ID><ELEMENT_SET_NO>999</ELEMENT_SET_NO><REV_AT_EPOCH>265</REV_AT_EPOCH><BSTAR>.5549E-3</BSTAR><MEAN_MOTION_DOT>.18137E-2</MEAN_MOTION_DOT><MEAN_MOTION_DDOT>.14452E-4</MEAN_MOTION_DDOT></tleParameters></data></segment></body></omm>
<omm id="CCSDS_OMM_VERS" version="2.0">
<header><CREATION_DATE/><ORIGINATOR/></header><body><segment><metadata><OBJECT_NAME>2022-100A</OBJECT_NAME><OBJECT_ID>2022-100A</OBJECT_ID><CENTER_NAME>EARTH</CENTER_NAME><REF_FRAME>TEME</REF_FRAME><TIME_SYSTEM>UTC</TIME_SYSTEM><MEAN_ELEMENT_THEORY>SGP4</MEAN_ELEMENT_THEORY></metadata><data><meanElements><EPOCH>2022-08-29T10:00:30.959136</EPOCH><MEAN_MOTION>15.22802582</MEAN_MOTION><ECCENTRICITY>.0007815</ECCENTRICITY><INCLINATION>35.0009</INCLINATION><RA_OF_ASC_NODE>146.8483</RA_OF_ASC_NODE><ARG_OF_PERICENTER>344.4141</ARG_OF_PERICENTER><MEAN_ANOMALY>15.6339</MEAN_ANOMALY></meanElements><tleParameters><EPHEMERIS_TYPE>0</EPHEMERIS_TYPE><CLASSIFICATION_TYPE>U</CLASSIFICATION_TYPE><NORAD_CAT_ID>53522</NORAD_CAT_ID><ELEMENT_SET_NO>999</ELEMENT_SET_NO><REV_AT_EPOCH>148</REV_AT_EPOCH><BSTAR>.24591E-3</BSTAR><MEAN_MOTION_DOT>.5861E-4</MEAN_MOTION_DOT><MEAN_MOTION_DDOT>0</MEAN_MOTION_DDOT></tleParameters></data></segment></body></omm>
<omm id="CCSDS_OMM_VERS" version="2.0">
<header><CREATION_DATE/><ORIGINATOR/></header><body><segment><metadata><OBJECT_NAME>2022-100B</OBJECT_NAME><OBJECT_ID>2022-100B</OBJECT_ID><CENTER_NAME>EARTH</CENTER_NAME><REF_FRAME>TEME</REF_FRAME><TIME_SYSTEM>UTC</TIME_SYSTEM><MEAN_ELEMENT_THEORY>SGP4</MEAN_ELEMENT_THEORY></metadata><data><meanElements><EPOCH>2022-08-29T08:22:01.352064</EPOCH><MEAN_MOTION>15.23473865</MEAN_MOTION><ECCENTRICITY>.0008381</ECCENTRICITY><INCLINATION>35.0016</INCLINATION><RA_OF_ASC_NODE>147.2367</RA_OF_ASC_NODE><ARG_OF_PERICENTER>347.4307</ARG_OF_PERICENTER><MEAN_ANOMALY>12.6199</MEAN_ANOMALY></meanElements><tleParameters><EPHEMERIS_TYPE>0</EPHEMERIS_TYPE><CLASSIFICATION_TYPE>U</CLASSIFICATION_TYPE><NORAD_CAT_ID>53523</NORAD_CAT_ID><ELEMENT_SET_NO>999</ELEMENT_SET_NO><REV_AT_EPOCH>147</REV_AT_EPOCH><BSTAR>.39544E-3</BSTAR><MEAN_MOTION_DOT>.9645E-4</MEAN_MOTION_DOT><MEAN_MOTION_DDOT>0</MEAN_MOTION_DDOT></tleParameters></data></segment></body></omm>
<omm id="CCSDS_OMM_VERS" version="2.0">
<header><CREATION_DATE/><ORIGINATOR/></header><body><segment><metadata><OBJECT_NAME>2022-100C</OBJECT_NAME><OBJECT_ID>2022-100C</OBJECT_ID><CENTER_NAME>EARTH</CENTER_NAME><REF_FRAME>TEME</REF_FRAME><TIME_SYSTEM>UTC</TIME_SYSTEM><MEAN_ELEMENT_THEORY>SGP4</MEAN_ELEMENT_THEORY></metadata><data><meanElements><EPOCH>2022-08-29T05:49:14.718144</EPOCH><MEAN_MOTION>15.22840110</MEAN_MOTION><ECCENTRICITY>.0005955</ECCENTRICITY><INCLINATION>35.0013</INCLINATION><RA_OF_ASC_NODE>147.9019</RA_OF_ASC_NODE><ARG_OF_PERICENTER>342.1977</ARG_OF_PERICENTER><MEAN_ANOMALY>156.9686</MEAN_ANOMALY></meanElements><tleParameters><EPHEMERIS_TYPE>0</EPHEMERIS_TYPE><CLASSIFICATION_TYPE>U</CLASSIFICATION_TYPE><NORAD_CAT_ID>53524</NORAD_CAT_ID><ELEMENT_SET_NO>999</ELEMENT_SET_NO><REV_AT_EPOCH>140</REV_AT_EPOCH><BSTAR>.2907E-3</BSTAR><MEAN_MOTION_DOT>.6942E-4</MEAN_MOTION_DOT><MEAN_MOTION_DDOT>0</MEAN_MOTION_DDOT></tleParameters></data></segment></body></omm>
<omm id="CCSDS_OMM_VERS" version="2.0">
<header><CREATION_DATE/><ORIGINATOR/></header><body><segment><metadata><OBJECT_NAME>2022-100D</OBJECT_NAME><OBJECT_ID>2022-100D</OBJECT_ID><CENTER_NAME>EARTH</CENTER_NAME><REF_FRAME>TEME</REF_FRAME><TIME_SYSTEM>UTC</TIME_SYSTEM><MEAN_ELEMENT_THEORY>SGP4</MEAN_ELEMENT_THEORY></metadata><data><meanElements><EPOCH>2022-08-29T09:53:25.374336</EPOCH><MEAN_MOTION>15.23799574</MEAN_MOTION><ECCENTRICITY>.0008551</ECCENTRICITY><INCLINATION>35.0029</INCLINATION><RA_OF_ASC_NODE>146.8111</RA_OF_ASC_NODE><ARG_OF_PERICENTER>356.2917</ARG_OF_PERICENTER><MEAN_ANOMALY>3.7748</MEAN_ANOMALY></meanElements><tleParameters><EPHEMERIS_TYPE>0</EPHEMERIS_TYPE><CLASSIFICATION_TYPE>U</CLASSIFICATION_TYPE><NORAD_CAT_ID>53525</NORAD_CAT_ID><ELEMENT_SET_NO>999</ELEMENT_SET_NO><REV_AT_EPOCH>143</REV_AT_EPOCH><BSTAR>.33343E-3</BSTAR><MEAN_MOTION_DOT>.8205E-4</MEAN_MOTION_DOT><MEAN_MOTION_DDOT>0</MEAN_MOTION_DDOT></tleParameters></data></segment></body></omm>
<omm id="CCSDS_OMM_VERS" version="2.0">
<header><CREATION_DATE/><ORIGINATOR/></header><body><segment><metadata><OBJECT_NAME>2022-100E</OBJECT_NAME><OBJECT_ID>2022-100E</OBJECT_ID><CENTER_NAME>EARTH</CENTER_NAME><REF_FRAME>TEME</REF_FRAME><TIME_SYSTEM>UTC</TIME_SYSTEM><MEAN_ELEMENT_THEORY>SGP4</MEAN_ELEMENT_THEORY></metadata><data><meanElements><EPOCH>2022-08-29T09:58:27.517728</EPOCH><MEAN_MOTION>15.22727669</MEAN_MOTION><ECCENTRICITY>.0005799</ECCENTRICITY><INCLINATION>35.0029</INCLINATION><RA_OF_ASC_NODE>146.8399</RA_OF_ASC_NODE><ARG_OF_PERICENTER>351.9933</ARG_OF_PERICENTER><MEAN_ANOMALY>8.0683</MEAN_ANOMALY></meanElements><tleParameters><EPHEMERIS_TYPE>0</EPHEMERIS_TYPE><CLASSIFICATION_TYPE>U</CLASSIFICATION_TYPE><NORAD_CAT_ID>53526</NORAD_CAT_ID><ELEMENT_SET_NO>999</ELEMENT_SET_NO><REV_AT_EPOCH>143</REV_AT_EPOCH><BSTAR>.15953E-3</BSTAR><MEAN_MOTION_DOT>.3778E-4</MEAN_MOTION_DOT><MEAN_MOTION_DDOT>0</MEAN_MOTION_DDOT></tleParameters></data></segment></body></omm>
<omm id="CCSDS_OMM_VERS" version="2.0">
<header><CREATION_DATE/><ORIGINATOR/></header><body><segment><metadata><OBJECT_NAME>STARLINK-4511</OBJECT_NAME><OBJECT_ID>2022-101A</OBJECT_ID><CENTER_NAME>EARTH</CENTER_NAME><REF_FRAME>TEME</REF_FRAME><TIME_SYSTEM>UTC</TIME_SYSTEM><MEAN_ELEMENT_THEORY>SGP4</MEAN_ELEMENT_THEORY></metadata><data><meanElements><EPOCH>2022-08-29T14:00:01.000224</EPOCH><MEAN_MOTION>15.76555957</MEAN_MOTION><ECCENTRICITY>.0003241</ECCENTRICITY><INCLINATION>53.2176</INCLINATION><RA_OF_ASC_NODE>106.2989</RA_OF_ASC_NODE><ARG_OF_PERICENTER>4.2877</ARG_OF_PERICENTER><MEAN_ANOMALY>161.1514</MEAN_ANOMALY></meanElements><tleParameters><EPHEMERIS_TYPE>0</EPHEMERIS_TYPE><CLASSIFICATION_TYPE>U</CLASSIFICATION_TYPE><NORAD_CAT_ID>53527</NORAD_CAT_ID><ELEMENT_SET_NO>999</ELEMENT_SET_NO><REV_AT_EPOCH>130</REV_AT_EPOCH><BSTAR>-.82878E-2</BSTAR><MEAN_MOTION_DOT>-.1196304E-1</MEAN_MOTION_DOT><MEAN_MOTION_DDOT>0</MEAN_MOTION_DDOT></tleParameters></data></segment></body></omm>

</ndm>
